{
    "links": {
        "self": "http://www.neowsapp.com/rest/v1/neo/54016784?api_key=iIulBulltgU6a56xZRHN4H3l9WmuAYTsLGpBGhQ2"
    },
    "id": "54016784",
    "neo_reference_id": "54016784",
    "name": "(2020 HO7)",
    "designation": "2020 HO7",
    "nasa_jpl_url": "http://ssd.jpl.nasa.gov/sbdb.cgi?sstr=54016784",
    "absolute_magnitude_h": 23.828,
    "estimated_diameter": {
        "kilometers": {
            "estimated_diameter_min": 0.0455989641,
            "estimated_diameter_max": 0.1019623834
        },
        "meters": {
            "estimated_diameter_min": 45.5989640966,
            "estimated_diameter_max": 101.9623834236
        },
        "miles": {
            "estimated_diameter_min": 0.0283338739,
            "estimated_diameter_max": 0.0633564682
        },
        "feet": {
            "estimated_diameter_min": 149.6029053668,
            "estimated_diameter_max": 334.5222660315
        }
    },
    "is_potentially_hazardous_asteroid": false,
    "close_approach_data": [
        {
            "close_approach_date": "2020-05-01",
            "close_approach_date_full": "2020-May-01 18:26",
            "epoch_date_close_approach": 1588357560000,
            "relative_velocity": {
                "kilometers_per_second": "17.4526586068",
                "kilometers_per_hour": "62829.5709843004",
                "miles_per_hour": "39039.8520374393"
            },
            "miss_distance": {
                "astronomical": "0.1804457199",
                "lunar": "70.1933850411",
                "kilometers": "26994295.347656613",
                "miles": "16773477.3325547394"
            },
            "orbiting_body": "Earth"
        }
    ],
    "orbital_data": {
        "orbit_id": "2",
        "orbit_determination_date": "2020-04-29 06:54:38",
        "first_observation_date": "2020-04-26",
        "last_observation_date": "2020-04-29",
        "data_arc_in_days": 3,
        "observations_used": 27,
        "orbit_uncertainty": "9",
        "minimum_orbit_intersection": ".171065",
        "jupiter_tisserand_invariant": "4.221",
        "epoch_osculation": "2458966.5",
        "eccentricity": ".29338436529529",
        "semi_major_axis": "1.555449586568838",
        "inclination": "33.06849330778547",
        "ascending_node_longitude": "36.08648689681708",
        "orbital_period": "708.569307774096",
        "perihelion_distance": "1.099104996864518",
        "perihelion_argument": "228.0563373026465",
        "aphelion_distance": "2.011794176273157",
        "perihelion_time": "2459019.625535807489",
        "mean_anomaly": "333.0087195693304",
        "mean_motion": ".5080660368015462",
        "equinox": "J2000",
        "orbit_class": {
            "orbit_class_type": "AMO",
            "orbit_class_description": "Near-Earth asteroid orbits similar to that of 1221 Amor",
            "orbit_class_range": "1.017 AU < q (perihelion) < 1.3 AU"
        }
    },
    "is_sentry_object": false
}